STARLINK-2022           
1 47643U 21012Z   24288.74854591 -.00003038  00000+0 -18511-3 0  9991
2 47643  53.0557 185.3270 0001891  72.5562 287.5633 15.06397341202730
